CCSDS_OMM_VERS = 2.0
CREATION_DATE  = 
ORIGINATOR     = 

OBJECT_NAME    = SL-3 R/B
OBJECT_ID      = 1982-079B
CENTER_NAME    = EARTH
REF_FRAME      = TEME
TIME_SYSTEM    = UTC
MEAN_ELEMENT_THEORY = SGP/SGP4

EPOCH          = 2026-04-02T19:31:29.167392
MEAN_MOTION    = 15.25125541
ECCENTRICITY   = .0025512
INCLINATION    = 81.1477
RA_OF_ASC_NODE = 164.5916
ARG_OF_PERICENTER = 85.6598
MEAN_ANOMALY   = 274.7549

EPHEMERIS_TYPE = 0
CLASSIFICATION_TYPE = U
NORAD_CAT_ID   = 13403
ELEMENT_SET_NO = 999
REV_AT_EPOCH   = 38137
BSTAR          = .37194E-3
MEAN_MOTION_DOT = .943E-4
MEAN_MOTION_DDOT = 0

CCSDS_OMM_VERS = 2.0
CREATION_DATE  = 
ORIGINATOR     = 

OBJECT_NAME    = SL-14 R/B
OBJECT_ID      = 1982-092B
CENTER_NAME    = EARTH
REF_FRAME      = TEME
TIME_SYSTEM    = UTC
MEAN_ELEMENT_THEORY = SGP/SGP4

EPOCH          = 2026-04-02T13:20:24.094752
MEAN_MOTION    = 14.86688188
ECCENTRICITY   = .00193249
INCLINATION    = 82.5652
RA_OF_ASC_NODE = 119.0716
ARG_OF_PERICENTER = 218.4841
MEAN_ANOMALY   = 302.8499

EPHEMERIS_TYPE = 0
CLASSIFICATION_TYPE = U
NORAD_CAT_ID   = 13553
ELEMENT_SET_NO = 999
REV_AT_EPOCH   = 33247
BSTAR          = .55681685E-4
MEAN_MOTION_DOT = .521E-5
MEAN_MOTION_DDOT = 0

CCSDS_OMM_VERS = 2.0
CREATION_DATE  = 
ORIGINATOR     = 

OBJECT_NAME    = SL-3 R/B
OBJECT_ID      = 1983-010B
CENTER_NAME    = EARTH
REF_FRAME      = TEME
TIME_SYSTEM    = UTC
MEAN_ELEMENT_THEORY = SGP/SGP4

EPOCH          = 2026-04-02T08:57:46.568160
MEAN_MOTION    = 15.47162585
ECCENTRICITY   = .0015577
INCLINATION    = 81.1042
RA_OF_ASC_NODE = 333.1963
ARG_OF_PERICENTER = 329.0766
MEAN_ANOMALY   = 30.9560

EPHEMERIS_TYPE = 0
CLASSIFICATION_TYPE = U
NORAD_CAT_ID   = 13819
ELEMENT_SET_NO = 999
REV_AT_EPOCH   = 36160
BSTAR          = .39192965E-3
MEAN_MOTION_DOT = .20039E-3
MEAN_MOTION_DDOT = 0

CCSDS_OMM_VERS = 2.0
CREATION_DATE  = 
ORIGINATOR     = 

OBJECT_NAME    = SL-3 R/B
OBJECT_ID      = 1983-075B
CENTER_NAME    = EARTH
REF_FRAME      = TEME
TIME_SYSTEM    = UTC
MEAN_ELEMENT_THEORY = SGP/SGP4

EPOCH          = 2026-04-02T19:32:08.329920
MEAN_MOTION    = 15.39011853
ECCENTRICITY   = .0022717
INCLINATION    = 97.6132
RA_OF_ASC_NODE = 98.3152
ARG_OF_PERICENTER = 139.6308
MEAN_ANOMALY   = 220.6628

EPHEMERIS_TYPE = 0
CLASSIFICATION_TYPE = U
NORAD_CAT_ID   = 14208
ELEMENT_SET_NO = 999
REV_AT_EPOCH   = 33386
BSTAR          = .50822E-3
MEAN_MOTION_DOT = .19745E-3
MEAN_MOTION_DDOT = 0

CCSDS_OMM_VERS = 2.0
CREATION_DATE  = 
ORIGINATOR     = 

OBJECT_NAME    = COSMOS 1536
OBJECT_ID      = 1984-013A
CENTER_NAME    = EARTH
REF_FRAME      = TEME
TIME_SYSTEM    = UTC
MEAN_ELEMENT_THEORY = SGP/SGP4

EPOCH          = 2026-04-02T16:27:18.722304
MEAN_MOTION    = 15.24166186
ECCENTRICITY   = .0013895
INCLINATION    = 82.5418
RA_OF_ASC_NODE = 83.9841
ARG_OF_PERICENTER = 190.1587
MEAN_ANOMALY   = 169.9372

EPHEMERIS_TYPE = 0
CLASSIFICATION_TYPE = U
NORAD_CAT_ID   = 14699
ELEMENT_SET_NO = 999
REV_AT_EPOCH   = 27627
BSTAR          = .35414E-3
MEAN_MOTION_DOT = .8674E-4
MEAN_MOTION_DDOT = 0

CCSDS_OMM_VERS = 2.0
CREATION_DATE  = 
ORIGINATOR     = 

OBJECT_NAME    = SL-14 R/B
OBJECT_ID      = 1984-027B
CENTER_NAME    = EARTH
REF_FRAME      = TEME
TIME_SYSTEM    = UTC
MEAN_ELEMENT_THEORY = SGP/SGP4

EPOCH          = 2026-04-02T20:48:35.988480
MEAN_MOTION    = 14.86004267
ECCENTRICITY   = .0016568
INCLINATION    = 82.5425
RA_OF_ASC_NODE = 222.3364
ARG_OF_PERICENTER = 251.9206
MEAN_ANOMALY   = 108.0206

EPHEMERIS_TYPE = 0
CLASSIFICATION_TYPE = U
NORAD_CAT_ID   = 14820
ELEMENT_SET_NO = 999
REV_AT_EPOCH   = 25122
BSTAR          = .91308E-4
MEAN_MOTION_DOT = .823E-5
MEAN_MOTION_DDOT = 0

CCSDS_OMM_VERS = 2.0
CREATION_DATE  = 
ORIGINATOR     = 

OBJECT_NAME    = SL-8 R/B
OBJECT_ID      = 1985-006B
CENTER_NAME    = EARTH
REF_FRAME      = TEME
TIME_SYSTEM    = UTC
MEAN_ELEMENT_THEORY = SGP/SGP4

EPOCH          = 2026-04-02T14:00:15.420384
MEAN_MOTION    = 14.37800653
ECCENTRICITY   = .00175073
INCLINATION    = 74.0459
RA_OF_ASC_NODE = 217.1796
ARG_OF_PERICENTER = 127.8951
MEAN_ANOMALY   = 243.1417

EPHEMERIS_TYPE = 0
CLASSIFICATION_TYPE = U
NORAD_CAT_ID   = 15483
ELEMENT_SET_NO = 999
REV_AT_EPOCH   = 15746
BSTAR          = .12549106E-3
MEAN_MOTION_DOT = .353E-5
MEAN_MOTION_DDOT = 0

CCSDS_OMM_VERS = 2.0
CREATION_DATE  = 
ORIGINATOR     = 

OBJECT_NAME    = SL-12 R/B(2)
OBJECT_ID      = 1985-042D
CENTER_NAME    = EARTH
REF_FRAME      = TEME
TIME_SYSTEM    = UTC
MEAN_ELEMENT_THEORY = SGP/SGP4

EPOCH          = 2026-04-02T21:24:42.842592
MEAN_MOTION    = 14.21989732
ECCENTRICITY   = .0032823
INCLINATION    = 71.1098
RA_OF_ASC_NODE = 36.5934
ARG_OF_PERICENTER = 87.9354
MEAN_ANOMALY   = 328.6213

EPHEMERIS_TYPE = 0
CLASSIFICATION_TYPE = U
NORAD_CAT_ID   = 15772
ELEMENT_SET_NO = 999
REV_AT_EPOCH   = 11783
BSTAR          = .11528E-3
MEAN_MOTION_DOT = .209E-5
MEAN_MOTION_DDOT = 0

CCSDS_OMM_VERS = 2.0
CREATION_DATE  = 
ORIGINATOR     = 

OBJECT_NAME    = SL-14 R/B
OBJECT_ID      = 1985-069B
CENTER_NAME    = EARTH
REF_FRAME      = TEME
TIME_SYSTEM    = UTC
MEAN_ELEMENT_THEORY = SGP/SGP4

EPOCH          = 2026-04-02T17:02:12.475104
MEAN_MOTION    = 14.86459233
ECCENTRICITY   = .0020261
INCLINATION    = 82.5305
RA_OF_ASC_NODE = 2.3530
ARG_OF_PERICENTER = 111.0615
MEAN_ANOMALY   = 249.2771

EPHEMERIS_TYPE = 0
CLASSIFICATION_TYPE = U
NORAD_CAT_ID   = 15945
ELEMENT_SET_NO = 999
REV_AT_EPOCH   = 17640
BSTAR          = .60978E-4
MEAN_MOTION_DOT = .565E-5
MEAN_MOTION_DDOT = 0

CCSDS_OMM_VERS = 2.0
CREATION_DATE  = 
ORIGINATOR     = 

OBJECT_NAME    = SL-16 R/B
OBJECT_ID      = 1985-097B
CENTER_NAME    = EARTH
REF_FRAME      = TEME
TIME_SYSTEM    = UTC
MEAN_ELEMENT_THEORY = SGP/SGP4

EPOCH          = 2026-04-02T17:38:37.596768
MEAN_MOTION    = 14.16602807
ECCENTRICITY   = .0009287
INCLINATION    = 71.0008
RA_OF_ASC_NODE = 89.9287
ARG_OF_PERICENTER = 231.2950
MEAN_ANOMALY   = 305.6276

EPHEMERIS_TYPE = 0
CLASSIFICATION_TYPE = U
NORAD_CAT_ID   = 16182
ELEMENT_SET_NO = 999
REV_AT_EPOCH   = 9063
BSTAR          = -.7244E-4
MEAN_MOTION_DOT = -.193E-5
MEAN_MOTION_DDOT = 0

CCSDS_OMM_VERS = 2.0
CREATION_DATE  = 
ORIGINATOR     = 

OBJECT_NAME    = SL-14 R/B
OBJECT_ID      = 1986-006B
CENTER_NAME    = EARTH
REF_FRAME      = TEME
TIME_SYSTEM    = UTC
MEAN_ELEMENT_THEORY = SGP/SGP4

EPOCH          = 2026-04-02T09:52:39.399168
MEAN_MOTION    = 14.86857048
ECCENTRICITY   = .00761533
INCLINATION    = 82.5258
RA_OF_ASC_NODE = 237.4066
ARG_OF_PERICENTER = 192.9885
MEAN_ANOMALY   = 166.9374

EPHEMERIS_TYPE = 0
CLASSIFICATION_TYPE = U
NORAD_CAT_ID   = 16496
ELEMENT_SET_NO = 999
REV_AT_EPOCH   = 15273
BSTAR          = .14406607E-3
MEAN_MOTION_DOT = .1381E-4
MEAN_MOTION_DDOT = 0

CCSDS_OMM_VERS = 2.0
CREATION_DATE  = 
ORIGINATOR     = 

OBJECT_NAME    = COSMOS 1743
OBJECT_ID      = 1986-034A
CENTER_NAME    = EARTH
REF_FRAME      = TEME
TIME_SYSTEM    = UTC
MEAN_ELEMENT_THEORY = SGP/SGP4

EPOCH          = 2026-04-02T19:58:04.889856
MEAN_MOTION    = 15.60716827
ECCENTRICITY   = .0005327
INCLINATION    = 82.5319
RA_OF_ASC_NODE = 48.4534
ARG_OF_PERICENTER = 158.1506
MEAN_ANOMALY   = 201.9979

EPHEMERIS_TYPE = 0
CLASSIFICATION_TYPE = U
NORAD_CAT_ID   = 16719
ELEMENT_SET_NO = 999
REV_AT_EPOCH   = 18401
BSTAR          = .97335E-3
MEAN_MOTION_DOT = .81497E-3
MEAN_MOTION_DDOT = 0

