SL-3 R/B                
1 13403U 82079B   26092.81353203  .00009430  00000+0  37194-3 0  9993
2 13403  81.1477 164.5916 0025512  85.6598 274.7549 15.25125541381370
SL-14 R/B               
1 13553U 82092B   26092.55583443  .00000521  00000+0  55682-4 0  9991
2 13553  82.5652 119.0716 0019324 218.4841 302.8499 14.86688188332471
SL-3 R/B                
1 13819U 83010B   26092.37345565  .00020039  00000+0  39193-3 0  9992
2 13819  81.1042 333.1963 0015577 329.0766  30.9560 15.47162585361609
SL-3 R/B                
1 14208U 83075B   26092.81398530  .00019745  00000+0  50822-3 0  9999
2 14208  97.6132  98.3152 0022717 139.6308 220.6628 15.39011853333867
COSMOS 1536             
1 14699U 84013A   26092.68563336  .00008674  00000+0  35414-3 0  9998
2 14699  82.5418  83.9841 0013895 190.1587 169.9372 15.24166186276270
SL-14 R/B               
1 14820U 84027B   26092.86708320  .00000823  00000+0  91308-4 0  9996
2 14820  82.5425 222.3364 0016568 251.9206 108.0206 14.86004267251223
SL-8 R/B                
1 15483U 85006B   26092.58351181  .00000353  00000+0  12549-3 0  9995
2 15483  74.0459 217.1796 0017507 127.8951 243.1417 14.37800653157460
SL-12 R/B(2)            
1 15772U 85042D   26092.89216253  .00000209  00000+0  11528-3 0  9996
2 15772  71.1098  36.5934 0032823  87.9354 328.6213 14.21989732117835
SL-14 R/B               
1 15945U 85069B   26092.70986661  .00000565  00000+0  60978-4 0  9993
2 15945  82.5305   2.3530 0020261 111.0615 249.2771 14.86459233176403
SL-16 R/B               
1 16182U 85097B   26092.73515737 -.00000193  00000+0 -72440-4 0  9999
2 16182  71.0008  89.9287 0009287 231.2950 305.6276 14.16602807 90639
SL-14 R/B               
1 16496U 86006B   26092.41156712  .00001381  00000+0  14407-3 0  9993
2 16496  82.5258 237.4066 0076153 192.9885 166.9374 14.86857048152735
COSMOS 1743             
1 16719U 86034A   26092.83200104  .00081497  00000+0  97335-3 0  9990
2 16719  82.5319  48.4534 0005327 158.1506 201.9979 15.60716827184019
